ONEWEB-0236             
1 48797U 21045AG  26166.27440683 -.00000013  00000+0 -68066-4 0  9997
2 48797  87.9000 259.5873 0002098 102.0179 258.1187 13.15548002244000
ONEWEB-0248             
1 48798U 21045AH  26166.28707245 -.00000045  00000+0 -15351-3 0  9992
2 48798  87.9009 259.5683 0001751 114.3326 245.7987 13.15547747244166
ONEWEB-0225             
1 48799U 21045AJ  26166.30926835  .00000061  00000+0  12670-3 0  9991
2 48799  87.9006 259.5721 0001432 109.3228 250.8058 13.15548795244179
ONEWEB-0215             
1 48800U 21045AK  26166.27914104  .00000022  00000+0  23118-4 0  9993
2 48800  87.9013 259.5604 0001450 116.6373 243.4906 13.15547439244042
ONEWEB-0216             
1 48801U 21045AL  26166.28866906 -.00000080  00000+0 -24558-3 0  9995
2 48801  87.9011 259.5735 0001963  98.4205 261.7148 13.15548768244054
ONEWEB-0239             
1 48802U 21045AM  26166.29341774 -.00000017  00000+0 -79079-4 0  9997
2 48802  87.8999 259.5791 0001630 124.6301 235.4983 13.15548837244097
ONEWEB-0249             
1 48967U 21060A   26166.22896607  .00000133  00000+0  31299-3 0  9997
2 48967  87.9098 229.1671 0002048 101.5780 258.5581 13.16595493239353
ONEWEB-0250             
1 48968U 21060B   26166.19443882  .00000098  00000+0  19246-3 0  9995
2 48968  87.9097 226.9367 0002783 115.6275 244.5149 13.25834046239952
ONEWEB-0252             
1 48970U 21060D   26166.18384492  .00000083  00000+0  18408-3 0  9991
2 48970  87.9101 229.1681 0001932  92.4435 267.6917 13.16594090239399
ONEWEB-0253             
1 48971U 21060E   26166.17276225  .00000173  00000+0  41891-3 0  9997
2 48971  87.9099 229.1759 0002070 101.7765 258.3599 13.16594115239320
ONEWEB-0254             
1 48972U 21060F   26166.18226343  .00000124  00000+0  29079-3 0  9995
2 48972  87.9101 229.1713 0001891 106.1991 253.9348 13.16594882239329
ONEWEB-0255             
1 48973U 21060G   26166.14426573  .00000080  00000+0  17615-3 0  9993
2 48973  87.9093 229.1861 0001872 100.8795 259.2547 13.16594279239393
ONEWEB-0256             
1 48974U 21060H   26166.17038083  .00000193  00000+0  47026-3 0  9996
2 48974  87.9095 229.1846 0002094  94.8875 265.2495 13.16593897239368
ONEWEB-0257             
1 48975U 21060J   26166.12684401  .00000022  00000+0  24794-4 0  9992
2 48975  87.9096 229.1803 0001896  97.1699 262.9648 13.16594589239310
ONEWEB-0258             
1 48976U 21060K   26166.12842957  .00000046  00000+0  87178-4 0  9996
2 48976  87.9097 229.1920 0002073  99.8317 260.3048 13.16594848239321
ONEWEB-0259             
1 48977U 21060L   26165.89410891 -.00000082  00000+0 -24826-3 0  9990
2 48977  87.9098 229.2379 0002074 103.2761 256.8602 13.16594622239322
ONEWEB-0260             
1 48978U 21060M   26166.18938122  .00000077  00000+0  16673-3 0  9999
2 48978  87.9095 229.1808 0002018  86.8439 273.2923 13.16594581239347
ONEWEB-0261             
1 48979U 21060N   26166.23528157  .00000133  00000+0  31496-3 0  9992
2 48979  87.9096 229.1717 0001699  99.4484 260.6839 13.16595854239409
ONEWEB-0262             
1 48980U 21060P   26166.13951347  .00000087  00000+0  19479-3 0  9999
2 48980  87.9096 229.1767 0002057 106.4029 253.7328 13.16594439239357
ONEWEB-0263             
1 48981U 21060Q   26166.17117754  .00000180  00000+0  43838-3 0  9990
2 48981  87.9099 229.1819 0001724 103.0237 257.1086 13.16595187239320
ONEWEB-0264             
1 48982U 21060R   26166.13239121  .00000029  00000+0  42860-4 0  9997
2 48982  87.9098 229.1928 0001885  94.2612 265.8734 13.16595350239325
ONEWEB-0266             
1 48984U 21060T   26166.22976108  .00000102  00000+0  23216-3 0  9997
2 48984  87.9099 229.1638 0002129  98.7177 261.4195 13.16593815239320
ONEWEB-0267             
1 48985U 21060U   26166.16484722  .00000165  00000+0  39786-3 0  9995
2 48985  87.9101 229.1733 0001823  98.0016 262.1321 13.16594949239324
ONEWEB-0268             
1 48986U 21060V   26166.13316650  .00000033  00000+0  51512-4 0  9993
2 48986  87.9099 229.1893 0002056  94.1242 266.0124 13.16596240239583
ONEWEB-0269             
1 48987U 21060W   26166.19017745  .00000088  00000+0  19730-3 0  9998
2 48987  87.9093 229.1806 0002187  93.7573 266.3808 13.16595092239361
ONEWEB-0270             
1 48988U 21060X   26166.13159855  .00000011  00000+0 -60206-5 0  9995
2 48988  87.9099 229.1916 0001834 107.3536 252.7796 13.16594595239394
ONEWEB-0271             
1 48989U 21060Y   26166.19492895  .00000067  00000+0  14166-3 0  9998
2 48989  87.9098 229.1685 0001810 100.5716 259.5619 13.16594814239401
ONEWEB-0272             
1 48990U 21060Z   26166.14108628  .00000069  00000+0  14708-3 0  9997
2 48990  87.9097 229.1915 0001879  90.9329 269.2018 13.16592670239347
ONEWEB-0273             
1 48991U 21060AA  26166.23926018  .00000188  00000+0  45933-3 0  9995
2 48991  87.9101 229.1709 0001912 100.9321 259.2025 13.16594756239330
ONEWEB-0274             
1 48992U 21060AB  26166.18858846  .00000089  00000+0  19945-3 0  9997
2 48992  87.9092 229.1836 0001959  89.0200 271.1156 13.16594389239368
