OBJECT_NAME,OBJECT_ID,EPOCH,MEAN_MOTION,ECCENTRICITY,INCLINATION,RA_OF_ASC_NODE,ARG_OF_PERICENTER,MEAN_ANOMALY,EPHEMERIS_TYPE,CLASSIFICATION_TYPE,NORAD_CAT_ID,ELEMENT_SET_NO,REV_AT_EPOCH,BSTAR,MEAN_MOTION_DOT,MEAN_MOTION_DDOT
ONEWEB-0236,2021-045AG,2026-06-15T06:35:08.750112,13.15548002,.00020986,87.9000,259.5873,102.0179,258.1187,0,U,48797,999,24400,-.68065503E-4,-.13E-6,0
ONEWEB-0248,2021-045AH,2026-06-15T06:53:23.059680,13.15547747,.00017514,87.9009,259.5683,114.3326,245.7987,0,U,48798,999,24416,-.1535149E-3,-.45E-6,0
ONEWEB-0225,2021-045AJ,2026-06-15T07:25:20.785440,13.15548795,.00014322,87.9006,259.5721,109.3228,250.8058,0,U,48799,999,24417,.12669524E-3,.61E-6,0
ONEWEB-0215,2021-045AK,2026-06-15T06:41:57.785856,13.15547439,.00014508,87.9013,259.5604,116.6373,243.4906,0,U,48800,999,24404,.23117701E-4,.22E-6,0
ONEWEB-0216,2021-045AL,2026-06-15T06:55:41.006784,13.15548768,.00019632,87.9011,259.5735,98.4205,261.7148,0,U,48801,999,24405,-.2455805E-3,-.8E-6,0
ONEWEB-0239,2021-045AM,2026-06-15T07:02:31.292736,13.15548837,.00016305,87.8999,259.5791,124.6301,235.4983,0,U,48802,999,24409,-.79078778E-4,-.17E-6,0
ONEWEB-0249,2021-060A,2026-06-15T05:29:42.668448,13.16595493,.0002048,87.9098,229.1671,101.5780,258.5581,0,U,48967,999,23935,.31299236E-3,.133E-5,0
ONEWEB-0250,2021-060B,2026-06-15T04:39:59.514048,13.25834046,.00027835,87.9097,226.9367,115.6275,244.5149,0,U,48968,999,23995,.19245898E-3,.98E-6,0
ONEWEB-0252,2021-060D,2026-06-15T04:24:44.201088,13.16594090,.00019325,87.9101,229.1681,92.4435,267.6917,0,U,48970,999,23939,.18408046E-3,.83E-6,0
ONEWEB-0253,2021-060E,2026-06-15T04:08:46.658400,13.16594115,.00020709,87.9099,229.1759,101.7765,258.3599,0,U,48971,999,23932,.41891323E-3,.173E-5,0
ONEWEB-0254,2021-060F,2026-06-15T04:22:27.560352,13.16594882,.00018917,87.9101,229.1713,106.1991,253.9348,0,U,48972,999,23932,.29078886E-3,.124E-5,0
ONEWEB-0255,2021-060G,2026-06-15T03:27:44.559072,13.16594279,.00018724,87.9093,229.1861,100.8795,259.2547,0,U,48973,999,23939,.17615161E-3,.8E-6,0
ONEWEB-0256,2021-060H,2026-06-15T04:05:20.903712,13.16593897,.00020945,87.9095,229.1846,94.8875,265.2495,0,U,48974,999,23936,.47025928E-3,.193E-5,0
ONEWEB-0257,2021-060J,2026-06-15T03:02:39.322464,13.16594589,.00018963,87.9096,229.1803,97.1699,262.9648,0,U,48975,999,23931,.24794334E-4,.22E-6,0
ONEWEB-0258,2021-060K,2026-06-15T03:04:56.314848,13.16594848,.00020734,87.9097,229.1920,99.8317,260.3048,0,U,48976,999,23932,.87177666E-4,.46E-6,0
ONEWEB-0259,2021-060L,2026-06-14T21:27:31.009824,13.16594622,.0002074,87.9098,229.2379,103.2761,256.8602,0,U,48977,999,23932,-.24826E-3,-.82E-6,0
ONEWEB-0260,2021-060M,2026-06-15T04:32:42.537408,13.16594581,.00020182,87.9095,229.1808,86.8439,273.2923,0,U,48978,999,23934,.16673188E-3,.77E-6,0
ONEWEB-0261,2021-060N,2026-06-15T05:38:48.327648,13.16595854,.0001699,87.9096,229.1717,99.4484,260.6839,0,U,48979,999,23940,.3149554E-3,.133E-5,0
ONEWEB-0262,2021-060P,2026-06-15T03:20:53.963808,13.16594439,.0002057,87.9096,229.1767,106.4029,253.7328,0,U,48980,999,23935,.19478914E-3,.87E-6,0
ONEWEB-0263,2021-060Q,2026-06-15T04:06:29.739456,13.16595187,.00017248,87.9099,229.1819,103.0237,257.1086,0,U,48981,999,23932,.43837943E-3,.18E-5,0
ONEWEB-0264,2021-060R,2026-06-15T03:10:38.600544,13.16595350,.00018853,87.9098,229.1928,94.2612,265.8734,0,U,48982,999,23932,.42859905E-4,.29E-6,0
ONEWEB-0266,2021-060T,2026-06-15T05:30:51.357312,13.16593815,.00021294,87.9099,229.1638,98.7177,261.4195,0,U,48984,999,23932,.23215935E-3,.102E-5,0
ONEWEB-0267,2021-060U,2026-06-15T03:57:22.799808,13.16594949,.00018239,87.9101,229.1733,98.0016,262.1321,0,U,48985,999,23932,.39785635E-3,.165E-5,0
ONEWEB-0268,2021-060V,2026-06-15T03:11:45.585600,13.16596240,.00020565,87.9099,229.1893,94.1242,266.0124,0,U,48986,999,23958,.51511735E-4,.33E-6,0
ONEWEB-0269,2021-060W,2026-06-15T04:33:51.331680,13.16595092,.00021873,87.9093,229.1806,93.7573,266.3808,0,U,48987,999,23936,.19730416E-3,.88E-6,0
ONEWEB-0270,2021-060X,2026-06-15T03:09:30.114720,13.16594595,.00018345,87.9099,229.1916,107.3536,252.7796,0,U,48988,999,23939,-.6020634E-5,.11E-6,0
ONEWEB-0271,2021-060Y,2026-06-15T04:40:41.861280,13.16594814,.000181,87.9098,229.1685,100.5716,259.5619,0,U,48989,999,23940,.14166132E-3,.67E-6,0
ONEWEB-0272,2021-060Z,2026-06-15T03:23:09.854592,13.16592670,.00018795,87.9097,229.1915,90.9329,269.2018,0,U,48990,999,23934,.1470796E-3,.69E-6,0
ONEWEB-0273,2021-060AA,2026-06-15T05:44:32.079552,13.16594756,.00019125,87.9101,229.1709,100.9321,259.2025,0,U,48991,999,23933,.45933025E-3,.188E-5,0
ONEWEB-0274,2021-060AB,2026-06-15T04:31:34.042944,13.16594389,.00019599,87.9092,229.1836,89.0200,271.1156,0,U,48992,999,23936,.19945117E-3,.89E-6,0
